[Satellite]
VERSION=1.1
NAME=POSAT (PO-28)
NICKNAME=PO-28
TLE1=1 22829U 93061G   11058.96267838  .00000013  00000-0  21507-4 0  7087
TLE2=2 22829  98.5041   7.2126 0009354 194.6021 165.4903 14.30278932909032
